SL-16 R/B               
1 28353U 04021B   25201.86974412 -.00000260  00000+0 -11066-3 0  9995
2 28353  71.0022 358.9683 0004498   2.7690 357.3456 14.14555380 90059
CZ-4B R/B               
1 28415U 04035C   25201.36643885  .00005980  00000+0  24092-3 0  9996
2 28415  97.3784 233.7786 0037174  71.5798 288.9476 15.24575155144468
CZ-2C R/B               
1 28480U 04046B   25201.52426594  .00000105  00000+0  53909-4 0  9998
2 28480  98.1926 126.0153 0140734 121.1554 240.3517 14.26844666 75398
ARIANE 5 R/B            
1 28499U 04049H   25201.42470033  .00000564  00000+0  69752-4 0  9999
2 28499  98.2378 356.6785 0085751  24.5033 336.0218 14.84573645111322
CZ-2D R/B               
1 28738U 05024B   25201.45778796  .00014980  00000+0  32120-3 0  9994
2 28738  97.3680 206.0076 0007648 141.6140 218.5654 15.44807925103770
ALOS (DAICHI)           
1 28931U 06002A   25201.62398240  .00001108  00000+0  19815-3 0  9991
2 28931  98.0859 154.4208 0001062  56.1673 303.9634 14.68811922 39782
H-2A R/B                
1 28932U 06002B   25201.86051388  .00004046  00000+0  23556-3 0  9998
2 28932  98.2152 325.3728 0057016 308.3569  51.2543 15.11323137 59467
RESURS-DK 1             
1 29228U 06021A   25201.77544317  .00001886  00000+0  11862-3 0  9993
2 29228  69.9329 116.1367 0002398 153.9068 206.2219 15.11108664 52497
CZ-4B R/B               
1 29507U 06046C   25201.71385027  .00003368  00000+0  18623-3 0  9994
2 29507  97.5939 242.2412 0034967 352.3813   7.6883 15.14062289 24958
CZ-2C R/B               
1 31114U 07010B   25201.58298523  .00000081  00000+0  56516-4 0  9995
2 31114  98.3831 321.6716 0057966 248.6977 110.8006 14.20137669946774
COSMO-SKYMED 1          
1 31598U 07023A   25201.82149416  .00006389  00000+0  60192-3 0  9999
2 31598  97.8887  26.3911 0001344  84.1182 276.0191 14.94173222980315
GENESIS 2               
1 31789U 07028A   25201.59111326  .00136489  13588-4  49649-3 0  9998
2 31789  64.4709 269.4936 0026317 304.2615  55.6049 15.87828744999403
COSMOS 2428             
1 31792U 07029A   25201.60342881  .00000318  00000+0  19675-3 0  9994
2 31792  70.9434 330.5267 0005378 241.0569 119.0013 14.12888234931310
SL-16 R/B               
1 31793U 07029B   25201.67777623 -.00000004  00000+0  22923-4 0  9992
2 31793  70.9773 300.0713 0002479 282.2715 222.1219 14.14793454932646
KORONAS-FOTON           
1 33504U 09003A   25201.36537978  .00006515  00000+0  17762-3 0  9997
2 33504  82.4329 156.1896 0009614 269.8975  90.1167 15.37210702909984
CZ-2C R/B               
1 37731U 11030B   25201.64798498  .00001135  00000+0  15225-3 0  9998
2 37731  97.8168 159.2585 0054220  26.9119 145.8045 14.80285907755758
H-2A R/B                
1 38341U 12025E   25201.47840126  .00002209  00000+0  21366-3 0  9994
2 38341  98.4377 145.8908 0046154 353.5878   6.4743 14.93182833713549
SHIJIAN-16 (SJ-16)      
1 39358U 13057A   25201.86604208  .00001096  00000+0  11220-3 0  9992
2 39358  74.9711 263.6253 0018015 313.9428  46.0272 14.91452356637008
SL-4 R/B                
1 39679U 14021B   25201.47535593  .00005044  00000+0  14322-3 0  9990
2 39679  51.6099  23.7842 0111369 341.1264  18.5604 15.32147160620590
ALOS-2                  
1 39766U 14029A   25201.87347120  .00001202  00000+0  16778-3 0  9995
2 39766  97.9228 298.7935 0001560  97.7058 262.4331 14.79473853602629
YAOGAN-29               
1 41038U 15069A   25201.79960270  .00000331  00000+0  47842-4 0  9992
2 41038  98.0337 224.3759 0002429  56.3272 303.8172 14.82670224521516
ASTRO-H (HITOMI)        
1 41337U 16012A   25201.27166821  .00002166  00000+0  13076-3 0  9995
2 41337  31.0009  54.2306 0009814 159.0957 201.0083 15.08189202517093
HXMT (HUIYAN)           
1 42758U 17034A   25201.75316099  .00002569  00000+0  14910-3 0  9990
2 42758  43.0136 222.7588 0035102 213.3830 146.4803 15.14123332447365
CZ-2C R/B               
1 43521U 18054D   25200.92753983  .00024566  00000+0  35680-3 0  9995
2 43521  35.1388  71.7109 0031281 203.7352 156.1932 15.54229590392246
SAOCOM 1A               
1 43641U 18076A   25201.79421604  .00000317  00000+0  46382-4 0  9990
2 43641  97.8891  28.2880 0001437  92.6169 267.5208 14.82166440367011
H-2A R/B                
1 43682U 18084L   25201.42730539  .00011072  00000+0  36263-3 0  9990
2 43682  98.8790   6.2294 0032462 103.6124 256.8731 15.31383710370120
SAOCOM 1B               
1 46265U 20059A   25201.82550063  .00000341  00000+0  49402-4 0  9998
2 46265  97.8895  27.4228 0001484  88.3117 271.8266 14.82155266264410
CSS (TIANHE)            
1 48274U 21035A   25201.84020981  .00009725  00000+0  13578-3 0  9997
2 48274  41.4635 176.6140 0007932 315.9431  44.0773 15.56854721241402
COSMOS 2550             
1 48865U 21056A   25201.90003913  .00004717  00000+0  14911-3 0  9997
2 48865  67.1427  22.1189 0008396 269.0603  90.9589 15.33830884227920
CZ-2C R/B               
1 52794U 22058K   25201.58450343  .00009587  00000+0  22650-3 0  9992
2 52794  50.1942  58.8718 0055258 313.5471  46.0911 15.40939139174205
GSLV R/B                
1 54149U 22138AN  25201.52088449  .00001604  00000+0  14387-3 0  9995
2 54149  87.3770 244.0972 0019609 275.0884  84.8108 14.94957262149220
XRISM                   
1 57800U 23137A   25201.53382396  .00003889  00000+0  23840-3 0  9992
2 57800  31.0034 341.4740 0007959 228.4835 131.5120 15.08359275102672
ACS3                    
1 59588U 24077B   25201.49259233  .00009768  00000+0  93710-2 0  9993
2 59588  97.4427 188.7219 0076060  54.4098 306.4116 13.79071718 62086
